{
  "type": "FeatureCollection",
  "features": [
    {
      "type": "Feature",
      "properties": {
        "norad_id": 59600,
        "name": "GSAT0227 (GALILEO 30)",
        "group": "galileo",
        "lat": 2.5927881860382005,
        "lon": -75.43527831234356,
        "alt_km": 23217.55477312128,
        "timestamp": "2025-12-09T05:43:20.988899+00:00",
        "meta_object_name": "GSAT0227 (GALILEO 30)",
        "meta_object_id": "2024-079C",
        "meta_epoch": "2025-12-08T08:44:01.424832",
        "meta_mean_motion": 1.70474656,
        "meta_eccentricity": 0.00032972,
        "meta_inclination": 54.9942,
        "meta_ra_of_asc_node": 106.4167,
        "meta_arg_of_pericenter": 114.0276,
        "meta_mean_anomaly": 245.9681,
        "meta_ephemeris_type": 0,
        "meta_classification_type": "U",
        "meta_norad_cat_id": 59600,
        "meta_element_set_no": 999,
        "meta_rev_at_epoch": 1011,
        "meta_bstar": 0,
        "meta_mean_motion_dot": 8e-08,
        "meta_mean_motion_ddot": 0,
        "tle_line1": "1 59600U 24079C   25342.36390538  .00000008  00000+0  00000+0 0  9991",
        "tle_line2": "2 59600  54.9942 106.4167 0003297 114.0276 245.9681  1.70474656 10110"
      },
      "geometry": {
        "type": "Point",
        "coordinates": [
          -75.43527831234356,
          2.5927881860382005
        ]
      }
    },
    {
      "type": "Feature",
      "properties": {
        "norad_id": 61182,
        "name": "GSAT0232 (GALILEO 32)",
        "group": "galileo",
        "lat": 9.177591077443166,
        "lon": -127.02796495861188,
        "alt_km": 23226.975063421443,
        "timestamp": "2025-12-09T05:43:20.988910+00:00",
        "meta_object_name": "GSAT0232 (GALILEO 32)",
        "meta_object_id": "2024-167A",
        "meta_epoch": "2025-12-08T07:56:10.650912",
        "meta_mean_motion": 1.70473284,
        "meta_eccentricity": 0.0002045,
        "meta_inclination": 55.2425,
        "meta_ra_of_asc_node": 226.5518,
        "meta_arg_of_pericenter": 212.3949,
        "meta_mean_anomaly": 321.7655,
        "meta_ephemeris_type": 0,
        "meta_classification_type": "U",
        "meta_norad_cat_id": 61182,
        "meta_element_set_no": 999,
        "meta_rev_at_epoch": 762,
        "meta_bstar": 0,
        "meta_mean_motion_dot": 1.8e-07,
        "meta_mean_motion_ddot": 0,
        "tle_line1": "1 61182U 24167A   25342.33067883  .00000018  00000+0  00000+0 0  9999",
        "tle_line2": "2 61182  55.2425 226.5518 0002045 212.3949 321.7655  1.70473284  7623"
      },
      "geometry": {
        "type": "Point",
        "coordinates": [
          -127.02796495861188,
          9.177591077443166
        ]
      }
    },
    {
      "type": "Feature",
      "properties": {
        "norad_id": 61183,
        "name": "GSAT0226 (GALILEO 31)",
        "group": "galileo",
        "lat": 43.00942312102286,
        "lon": 6.2104547291003716,
        "alt_km": 23214.717445411166,
        "timestamp": "2025-12-09T05:43:20.988922+00:00",
        "meta_object_name": "GSAT0226 (GALILEO 31)",
        "meta_object_id": "2024-167B",
        "meta_epoch": "2025-12-08T04:07:13.317888",
        "meta_mean_motion": 1.70473397,
        "meta_eccentricity": 7.98e-05,
        "meta_inclination": 55.2409,
        "meta_ra_of_asc_node": 226.5616,
        "meta_arg_of_pericenter": 122.0254,
        "meta_mean_anomaly": 67.2121,
        "meta_ephemeris_type": 0,
        "meta_classification_type": "U",
        "meta_norad_cat_id": 61183,
        "meta_element_set_no": 999,
        "meta_rev_at_epoch": 759,
        "meta_bstar": 0,
        "meta_mean_motion_dot": 1.9e-07,
        "meta_mean_motion_ddot": 0,
        "tle_line1": "1 61183U 24167B   25342.17168192  .00000019  00000+0  00000+0 0  9998",
        "tle_line2": "2 61183  55.2409 226.5616 0000798 122.0254  67.2121  1.70473397  7595"
      },
      "geometry": {
        "type": "Point",
        "coordinates": [
          6.2104547291003716,
          43.00942312102286
        ]
      }
    }
  ]
}